234P/LINEAR,e,11.5340,179.5661,357.4363,3.797764,0.1331717,0.25722658,21.0882,03/31.0/2025,2000,g 12.0,4.0
# From MPC182890
235P/LINEAR,e,9.8124,200.1929,352.1183,3.448257,0.1539234,0.42630514,318.9767,03/31.0/2025,2000,g 12.0,4.0
# From MPEC 2024-P23
236P/LINEAR,e,16.3558,245.5688,119.4203,3.724417,0.1371250,0.50915966,7.5672,03/31.0/2025,2000,g 14.0,4.0
# From MPC182890
237P/LINEAR,e,14.0146,245.3558,25.5003,3.515937,0.1495004,0.43301681,102.6160,03/31.0/2025,2000,g 14.5,2.0
# From MPEC 2024-L77
238P/Read,e,1.2638,51.6468,324.2705,3.167334,0.1748490,0.25068659,180.0856,03/31.0/2025,2000,g 14.5,4.0
# From MPEC 2021-F20
239P/LINEAR,e,11.3072,255.9414,220.3735,4.464057,0.1044983,0.63146263,237.2503,03/31.0/2025,2000,g 17.5,2.0
# From MPEC 2024-YC7
240P/NEAT,e,23.5370,74.9143,352.0701,3.860060,0.1299610,0.45033372,325.6923,03/31.0/2025,2000,g 11.0,4.0
# From MPEC 2022-J42
241P/LINEAR,e,21.0947,305.4231,111.6024,4.927345,0.0901124,0.61021341,121.0895,03/31.0/2025,2000,g 13.5,4.0
# From MPC182890
242P/Spahr,e,32.4246,180.2707,244.9467,5.537613,0.0756345,0.28278973,7.3902,03/31.0/2025,2000,g  8.0,4.0
# From MPEC 2022-K19
243P/NEAT,e,7.6442,87.6480,283.6985,3.827129,0.1316420,0.36034729,316.3585,03/31.0/2025,2000,g 12.5,4.0
# From MPEC 2024-L77
244P/Scotti,e,2.2578,354.0088,93.4756,4.904018,0.0907561,0.19986654,78.2373,03/31.0/2025,2000,g  9.0,4.0
# From MPEC 2022-CN4
245P/WISE,e,21.1716,316.8859,316.5057,4.052367,0.1208206,0.45576306,315.8743,03/31.0/2025,2000,g 14.0,4.0
# From MPEC 2024-YC7
246P/NEAT,e,17.5862,74.2468,185.6373,4.278806,0.1113577,0.22545812,175.4558,03/31.0/2025,2000,g 10.5,4.0
# From MPEC 2021-F20
247P/LINEAR,e,13.6581,53.9914,47.4944,3.964152,0.1248759,0.62557228,288.3272,03/31.0/2025,2000,g 16.5,2.0
# From MPC 75730
248P/Gibbs,e,6.3520,207.8068,209.9791,5.981557,0.0673725,0.63926162,348.6865,03/31.0/2025,2000,g 14.0,4.0
# From MPEC 2022-YN2
249P/LINEAR,e,8.3854,239.0425,65.7439,2.765011,0.2143675,0.81934780,12.2844,03/31.0/2025,2000,g 15.5,4.0
# From MPC182890
250P/Larson,e,13.1525,73.3047,45.7129,3.778310,0.1342016,0.39858886,353.7254,03/31.0/2025,2000,g 14.5,4.0
# From MPEC 2024-TD8
251P/LINEAR,e,23.3881,219.3376,31.1950,3.512035,0.1497497,0.50424133,61.6715,03/31.0/2025,2000,g 16.5,2.0
# From MPEC 2021-S45
252P/LINEAR,e,10.4196,190.9060,343.3759,3.051199,0.1849262,0.67101781,251.4909,03/31.0/2025,2000,g 17.5,4.0
# From MPC182890
253P/PANSTARRS,e,4.9441,146.8502,230.8414,3.464392,0.1528493,0.41497765,24.6057,03/31.0/2025,2000,g 14.5,4.0
# From MPC182890
254P/McNaught,e,32.5393,129.1801,219.7359,4.619906,0.0992555,0.31853105,163.2027,03/31.0/2025,2000,g 11.0,4.0
# From NK 2214
255P/Levy,e,13.4053,275.6366,186.0427,2.942309,0.1952862,0.71204562,182.5897,03/31.0/2025,2000,g  9.0,4.0
# From MPEC 2024-L77
256P/LINEAR,e,27.6239,81.3270,124.0724,4.635321,0.0987607,0.41797044,74.0774,03/31.0/2025,2000,g 14.0,2.0
# From MPEC 2023-A50
257P/Catalina,e,20.2162,207.7272,117.7369,3.767746,0.1347664,0.42880301,224.3271,03/31.0/2025,2000,g 11.5,4.0
# From MPEC 2021-U31
258P/PANSTARRS,e,6.7511,126.2360,25.5988,4.389109,0.1071863,0.20948108,187.2327,03/31.0/2025,2000,g 13.0,4.0
# From MPC106349
259P/Garradd,e,15.8983,51.3726,257.4958,2.729307,0.2185876,0.33872270,250.8839,03/31.0/2025,2000,g 15.5,4.0
# From MPEC 2022-O01
260P/McNaught,e,15.0435,349.3087,18.4921,3.623565,0.1428894,0.60882439,289.7020,03/31.0/2025,2000,g 13.5,4.0
# From MPEC 2021-J28
261P/Larson,e,6.0733,291.0506,67.3649,3.489773,0.1511848,0.42283550,318.9723,03/31.0/2025,2000,g 14.0,4.0
# From MPC 82322
262P/McNaught-Russell,e,29.2549,217.8873,171.0700,6.869277,0.0547441,0.81604363,245.8663,03/31.0/2025,2000,g 13.5,4.0
# From MPEC 2024-L77
263P/Gibbs,e,11.5267,105.5039,35.0204,3.040915,0.1858650,0.59401336,146.8607,03/31.0/2025,2000,g 18.0,4.0
# From MPC114608
264P/Larsen,e,25.1761,219.2097,341.1271,4.028250,0.1219072,0.34063065,272.8849,03/31.0/2025,2000,g 13.0,4.0
# From MPC 79870
265P/LINEAR,e,14.3424,342.9258,33.5596,4.260592,0.1120725,0.64681301,169.3609,03/31.0/2025,2000,g 14.5,4.0
# From MPEC 2021-F20
266P/Christensen,e,3.4282,4.9478,97.7795,3.528122,0.1487266,0.34091535,268.3405,03/31.0/2025,2000,g 14.7,4.0
# From MPC114608
267P/LONEOS,e,6.1408,228.5752,114.2086,3.209246,0.1714350,0.61468700,58.3091,03/31.0/2025,2000,g 19.5,4.0
# From MPC182890
268P/Bernardi,e,15.6614,125.6322,0.0163,4.591364,0.1001824,0.47452167,10.2706,03/31.0/2025,2000,g 14.0,4.0
# From MPEC 2023-J29
269P/Jedicke,e,7.0842,241.7680,225.7179,7.058856,0.0525536,0.43346107,201.0652,03/31.0/2025,2000,g 10.0,4.0
# From MPC 88332
270P/Gehrels,e,2.9249,223.0292,209.9158,6.649565,0.0574797,0.47019652,247.0804,03/31.0/2025,2000,g  8.0,4.0
# From MPC 92277
271P/van Houten-Lemmon,e,6.8672,9.2863,36.6063,7.032346,0.0528511,0.39595527,225.3685,03/31.0/2025,2000,g 11.0,4.0
# From MPEC 2023-D41
272P/NEAT,e,18.0818,109.4393,27.8864,4.461939,0.1045728,0.45546629,103.2737,03/31.0/2025,2000,g 16.0,2.0
# From MPC 82723
273P/Pons-Gambart,e,136.3917,320.3869,20.1365,31.93945,0.0054603,0.97451090,0.0000,12/22.1312/2012,2000,g 11.5,4.0
# From MPEC 2024-GJ3
274P/Tombaugh-Tenagra,e,15.8209,81.3178,38.4889,4.378388,0.1075803,0.44021978,116.9308,03/31.0/2025,2000,g 13.0,4.0
# From MPC 81862
275P/Hermann,e,21.2551,348.6874,173.8985,5.794745,0.0706566,0.71369993,319.2997,03/31.0/2025,2000,g 17.0,4.0
# From MPC182890
276P/Vorobjov,e,14.7868,211.3079,199.2994,5.360150,0.0794216,0.27265591,8.7494,03/31.0/2025,2000,g 11.5,4.0
# From MPEC 2021-F20
277P/LINEAR,e,16.7927,276.2603,152.4327,3.853579,0.1302890,0.50643251,201.9938,03/31.0/2025,2000,g 15.1,4.0
# From MPEC 2021-S45
278P/McNaught,e,6.6189,13.4919,239.4025,3.648659,0.1414178,0.44908914,232.8244,03/31.0/2025,2000,g 14.0,4.0
# From MPEC 2024-A43
279P/LaSagra,e,5.0522,346.1045,5.6529,3.568699,0.1461973,0.39938047,104.1212,03/31.0/2025,2000,g 14.0,4.0
# From MPEC 2024-RQ6
280P/Larsen,e,11.7753,131.3777,104.6490,4.524851,0.1023994,0.41680365,61.9096,03/31.0/2025,2000,g 12.5,4.0
# From MPEC 2023-D41
281P/MOSS,e,4.7177,87.1657,26.9751,4.886207,0.0912528,0.17391506,71.7284,03/31.0/2025,2000,g 11.0,4.0
# From MPC133426
282P/,e,5.8135,217.6079,9.1137,4.235627,0.1130648,0.18764754,141.9134,03/31.0/2025,2000,g 13.5,2.0
# From MPEC 2022-K19
283P/Spacewatch,e,14.4675,161.1227,22.1442,4.131952,0.1173468,0.48488398,152.5342,03/31.0/2025,2000,g 16.0,2.0
# From MPEC 2024-D33
284P/McNaught,e,11.8534,144.2651,202.4701,3.678769,0.1396852,0.37436665,181.1100,03/31.0/2025,2000,g 13.0,4.0
# From MPEC 2024-L77
285P/LINEAR,e,25.0333,185.5130,178.3888,4.505548,0.1030582,0.61812153,83.3852,03/31.0/2025,2000,g 15.0,4.0
# From MPEC 2024-LE0
286P/Christensen,e,17.2030,283.5734,24.1985,4.084035,0.1194180,0.42975223,125.8492,03/31.0/2025,2000,g 14.0,4.0
# From MPEC 2025-A40
287P/Christensen,e,16.3255,138.7872,190.0938,4.182257,0.1152360,0.27283426,72.6484,03/31.0/2025,2000,g 13.5,4.0
# From MPC133426
288P/,e,3.2383,83.1054,280.2972,3.050351,0.1850032,0.19967736,208.3018,03/31.0/2025,2000,g 16.0,2.0
# From MPEC 2024-O39
289P/Blanpain,e,5.9003,68.8913,9.8787,3.043922,0.1855897,0.68647690,357.3424,03/31.0/2025,2000,g 19.0,4.0
# From MPC 95214
290P/Jager,e,20.0466,302.6745,181.8515,6.214052,0.0636270,0.62820812,259.8367,03/31.0/2025,2000,g 10.5,4.0
# From MPEC 2024-YC7
291P/NEAT,e,6.3097,237.6608,173.5591,4.534814,0.1020622,0.43392708,71.1343,03/31.0/2025,2000,g 13.0,4.0
# From MPEC 2022-K19
292P/Li,e,24.3226,90.8953,319.6577,6.096177,0.0654814,0.58992802,266.1276,03/31.0/2025,2000,g 12.5,4.0
# From MPEC 2022-L66
293P/Spacewatch,e,9.0612,78.3637,40.9767,3.637823,0.1420501,0.41949610,221.7803,03/31.0/2025,2000,g 14.5,4.0
# From MPC182890
294P/LINEAR,e,17.7419,309.6013,237.5772,3.191071,0.1729018,0.60104481,336.9718,03/31.0/2025,2000,g 15.5,4.0
# From MPEC 2022-K19
295P/LINEAR,e,21.0839,7.3826,73.0342,5.299274,0.0807941,0.61764706,321.3224,03/31.0/2025,2000,g 12.0,4.0
# From MPEC 2021-N06
296P/Garradd,e,25.3805,263.5327,350.1193,3.475220,0.1521355,0.48515614,250.5031,03/31.0/2025,2000,g 14.0,4.0
# From MPC102956
297P/Beshore,e,11.2382,92.1840,142.2631,3.564230,0.1464723,0.28845484,224.3055,03/31.0/2025,2000,g 15.0,4.0
# From MPC114609
298P/Christensen,e,7.8720,52.7880,100.6148,3.588252,0.1450039,0.38686389,241.7032,03/31.0/2025,2000,g 15.0,4.0
# From MPEC 2024-TD8
299P/Catalina-PANSTARRS,e,10.4690,271.5807,323.6268,4.388869,0.1071951,0.28092337,35.9049,03/31.0/2025,2000,g 11.5,4.0
# From MPEC 2023-VM5
300P/Catalina,e,5.6765,95.6215,222.8848,2.696527,0.2225855,0.69198821,160.2591,03/31.0/2025,2000,g 16.0,4.0
# From MPC 89014
301P/LINEAR-NEAT,e,10.3290,351.0643,193.4395,5.751109,0.0714622,0.58616109,278.2996,03/31.0/2025,2000,g 13.0,4.0
# From MPEC 2024-YC7
302P/Lemmon-PANSTARRS,e,6.0356,121.7155,208.6283,4.267593,0.1117968,0.22939462,2.4132,03/31.0/2025,2000,g 12.5,4.0
# From MPC 92278
303P/NEAT,e,7.0162,347.9515,357.0292,5.040040,0.0871070,0.51030350,331.6106,03/31.0/2025,2000,g 13.5,4.0
# From MPEC 2022-K19
304P/Ory,e,2.6057,58.9391,335.2779,3.149748,0.1763154,0.60086887,297.9037,03/31.0/2025,2000,g 16.5,4.0
# From MPC182890
305P/Skiff,e,11.6712,240.1035,147.4151,4.637242,0.0986994,0.69409968,13.2111,03/31.0/2025,2000,g 18.0,4.0
# From MPC 92278
306P/LINEAR,e,8.3028,341.3529,0.8965,3.124476,0.1784590,0.59258252,337.9340,03/31.0/2025,2000,g 19.0,4.0
# From MPC 92278
307P/LINEAR,e,4.4348,158.1196,222.2504,5.787931,0.0707814,0.67507856,265.0003,03/31.0/2025,2000,g 15.0,4.0
# From MPEC 2022-C56
308P/Lagerkvist-Carsenty,e,4.8525,63.0987,333.7559,6.600935,0.0581160,0.36425449,209.6458,03/31.0/2025,2000,g 13.0,2.0
# From MPC182891
309P/LINEAR,e,17.0204,10.1383,49.9157,4.374665,0.1077177,0.61825062,39.5366,03/31.0/2025,2000,g 15.0,4.0
# From MPC182891
310P/Hill,e,13.1200,8.8839,31.5245,4.181322,0.1152746,0.42212669,60.4977,03/31.0/2025,2000,g 13.5,4.0
# From MPEC 2024-A43
311P/PANSTARRS,e,4.9712,279.1693,144.2813,2.188602,0.3044064,0.11553393,138.2339,03/31.0/2025,2000,g 17.0,4.0
# From MPEC 2024-NE4
